ONEWEB-0395             
1 50475U 21132G   26167.09888429 -.00000164  00000+0 -49920-3 0  9999
2 50475  87.8889  21.2840 0002037  89.0487 271.0874 13.11419653215579
ONEWEB-0396             
1 50476U 21132H   26167.18084411 -.00000031  00000+0 -11062-3 0  9998
2 50476  87.9169 335.6548 0001943  87.7045 272.4310 13.18684909221504
ONEWEB-0397             
1 50477U 21132J   26166.96839212  .00000038  00000+0  64106-4 0  9994
2 50477  87.9169 335.6972 0001856  84.6728 275.4616 13.18684830221452
ONEWEB-0398             
1 50478U 21132K   26167.29555964  .00000011  00000+0 -38277-5 0  9994
2 50478  87.8892  21.2353 0001954  94.4498 265.6853 13.11414147215494
ONEWEB-0399             
1 50479U 21132L   26167.28200928  .00000475  00000+0  13046-2 0  9998
2 50479  87.8893  21.2489 0002158  74.9852 285.1515 13.11415196215486
ONEWEB-0400             
1 50480U 21132M   26167.17410443 -.00000013  00000+0 -65669-4 0  9993
2 50480  87.9170 335.6458 0001918  97.7450 262.3900 13.18685770221470
ONEWEB-0401             
1 50481U 21132N   26167.21962707 -.00000018  00000+0 -77278-4 0  9998
2 50481  87.9172 335.6341 0001639  88.2464 271.8856 13.18684718221481
ONEWEB-0402             
1 50482U 21132P   26167.18254139 -.00000018  00000+0 -78167-4 0  9996
2 50482  87.9168 335.6308 0001537  80.0106 280.1200 13.18685619221500
ONEWEB-0403             
1 50483U 21132Q   26167.20782468 -.00000006  00000+0 -48901-4 0  9991
2 50483  87.9169 335.6501 0001996  90.7755 269.3606 13.18683560221461
ONEWEB-0404             
1 50484U 21132R   26167.03446627  .00000376  00000+0  10243-2 0  9991
2 50484  87.8890  21.2967 0002148  82.8849 277.2523 13.11418493215544
ONEWEB-0405             
1 50485U 21132S   26167.22131875 -.00000071  00000+0 -21397-3 0  9996
2 50485  87.9173 335.6319 0002016 105.3306 254.8049 13.18686048221862
ONEWEB-0406             
1 50486U 21132T   26166.98525409  .00000002  00000+0 -28727-4 0  9997
2 50486  87.9164 335.6953 0002344  86.3486 273.7915 13.18684830221463
ONEWEB-0407             
1 50487U 21132U   26167.20615159  .00000270  00000+0  65084-3 0  9998
2 50487  87.9166 335.6435 0001668  94.1349 265.9974 13.18685232221436
ONEWEB-0409             
1 50488U 21132V   26167.03276071  .00000356  00000+0  96889-3 0  9998
2 50488  87.8894  21.2851 0002125  86.1616 273.9755 13.11419546215436
ONEWEB-0412             
1 50489U 21132W   26167.19433311 -.00000018  00000+0 -78779-4 0  9994
2 50489  87.9167 335.6543 0001644  85.0645 275.0675 13.18684677221523
ONEWEB-0413             
1 50490U 21132X   26167.19941069 -.00000015  00000+0 -71370-4 0  9997
2 50490  87.9159 335.6520 0001546  90.1228 270.0081 13.18685932221460
ONEWEB-0414             
1 50491U 21132Y   26167.18422200 -.00000032  00000+0 -11357-3 0  9995
2 50491  87.9170 335.6367 0001844  86.8979 273.2364 13.18685152221495
ONEWEB-0417             
1 50492U 21132Z   26167.19265117 -.00000024  00000+0 -93736-4 0  9992
2 50492  87.9161 335.6548 0002093  90.8633 269.2739 13.18684890221473
ONEWEB-0418             
1 50493U 21132AA  26167.20261576 -.00000590  00000+0 -15292-2 0  9997
2 50493  87.9170 335.6525 0002161  91.2119 268.9261 13.18687906221533
ONEWEB-0419             
1 50494U 21132AB  26167.22121252  .00000008  00000+0 -11723-4 0  9996
2 50494  87.9171 335.6483 0002114  97.3298 262.8075 13.18665578221459
ONEWEB-0420             
1 50495U 21132AC  26167.18590356 -.00000013  00000+0 -65742-4 0  9994
2 50495  87.9160 335.6583 0001682  95.8728 264.2596 13.18685293221448
ONEWEB-0421             
1 50496U 21132AD  26167.17915950 -.00000022  00000+0 -88154-4 0  9997
2 50496  87.9166 335.6572 0001801  80.7858 279.3478 13.18684676221487
ONEWEB-0424             
1 50497U 21132AE  26167.21625668  .00000048  00000+0  88330-4 0  9999
2 50497  87.9169 335.6478 0002070 101.1748 258.9617 13.18685032221510
ONEWEB-0426             
1 50498U 21132AF  26167.17493251  .00000087  00000+0  18901-3 0  9995
2 50498  87.9169 335.6470 0002281  77.1462 282.9925 13.18689393221458
ONEWEB-0427             
1 50499U 21132AG  26167.21457104  .00000044  00000+0  78212-4 0  9993
2 50499  87.9171 335.6281 0002037  89.8721 270.2645 13.18685017221480
ONEWEB-0429             
1 50500U 21132AH  26166.97345176 -.00000015  00000+0 -70410-4 0  9995
2 50500  87.9162 335.7004 0001724  93.0752 267.0578 13.18685431221423
ONEWEB-0430             
1 50501U 21132AJ  26167.18927516 -.00000006  00000+0 -48490-4 0  9997
2 50501  87.9162 335.6560 0001813 101.0537 259.0800 13.18685605221499
ONEWEB-0432             
1 50502U 21132AK  26167.23146301 -.00000038  00000+0 -13316-3 0  9992
2 50502  87.9169 335.6248 0002163 108.7095 251.4271 13.17154275221459
ONEWEB-0440             
1 50503U 21132AL  26167.20950917  .00000035  00000+0  56565-4 0  9995
2 50503  87.9171 335.6479 0001567  86.2406 273.8906 13.18685126221449
ONEWEB-0450             
1 50504U 21132AM  26167.20290923 -.00000026  00000+0 -97700-4 0  9998
2 50504  87.9159 335.6545 0001692  96.8692 263.2633 13.18685403221474
