OBJECT_NAME,OBJECT_ID,EPOCH,MEAN_MOTION,ECCENTRICITY,INCLINATION,RA_OF_ASC_NODE,ARG_OF_PERICENTER,MEAN_ANOMALY,EPHEMERIS_TYPE,CLASSIFICATION_TYPE,NORAD_CAT_ID,ELEMENT_SET_NO,REV_AT_EPOCH,BSTAR,MEAN_MOTION_DOT,MEAN_MOTION_DDOT
ONEWEB-0395,2021-132G,2026-06-16T02:22:23.602656,13.11419653,.0002037,87.8889,21.2840,89.0487,271.0874,0,U,50475,999,21557,-.499195E-3,-.164E-5,0
ONEWEB-0396,2021-132H,2026-06-16T04:20:24.931104,13.18684909,.00019431,87.9169,335.6548,87.7045,272.4310,0,U,50476,999,22150,-.11061517E-3,-.31E-6,0
ONEWEB-0397,2021-132J,2026-06-15T23:14:29.079168,13.18684830,.00018565,87.9169,335.6972,84.6728,275.4616,0,U,50477,999,22145,.64105721E-4,.38E-6,0
ONEWEB-0398,2021-132K,2026-06-16T07:05:36.352896,13.11414147,.00019547,87.8892,21.2353,94.4498,265.6853,0,U,50478,999,21549,-.3827714E-5,.11E-6,0
ONEWEB-0399,2021-132L,2026-06-16T06:46:05.601792,13.11415196,.00021588,87.8893,21.2489,74.9852,285.1515,0,U,50479,999,21548,.13045525E-2,.475E-5,0
ONEWEB-0400,2021-132M,2026-06-16T04:10:42.622752,13.18685770,.00019183,87.9170,335.6458,97.7450,262.3900,0,U,50480,999,22147,-.65669257E-4,-.13E-6,0
ONEWEB-0401,2021-132N,2026-06-16T05:16:15.778848,13.18684718,.0001639,87.9172,335.6341,88.2464,271.8856,0,U,50481,999,22148,-.7727767E-4,-.18E-6,0
ONEWEB-0402,2021-132P,2026-06-16T04:22:51.576096,13.18685619,.00015371,87.9168,335.6308,80.0106,280.1200,0,U,50482,999,22150,-.78166725E-4,-.18E-6,0
ONEWEB-0403,2021-132Q,2026-06-16T04:59:16.052352,13.18683560,.00019962,87.9169,335.6501,90.7755,269.3606,0,U,50483,999,22146,-.489015E-4,-.6E-7,0
ONEWEB-0404,2021-132R,2026-06-16T00:49:37.885728,13.11418493,.00021487,87.8890,21.2967,82.8849,277.2523,0,U,50484,999,21554,.10243166E-2,.376E-5,0
ONEWEB-0405,2021-132S,2026-06-16T05:18:41.940000,13.18686048,.00020162,87.9173,335.6319,105.3306,254.8049,0,U,50485,999,22186,-.2139676E-3,-.71E-6,0
ONEWEB-0406,2021-132T,2026-06-15T23:38:45.953376,13.18684830,.00023441,87.9164,335.6953,86.3486,273.7915,0,U,50486,999,22146,-.28726728E-4,.2E-7,0
ONEWEB-0407,2021-132U,2026-06-16T04:56:51.497376,13.18685232,.00016689,87.9166,335.6435,94.1349,265.9974,0,U,50487,999,22143,.65084365E-3,.27E-5,0
ONEWEB-0409,2021-132V,2026-06-16T00:47:10.525344,13.11419546,.00021252,87.8894,21.2851,86.1616,273.9755,0,U,50488,999,21543,.96889184E-3,.356E-5,0
ONEWEB-0412,2021-132W,2026-06-16T04:39:50.380704,13.18684677,.00016446,87.9167,335.6543,85.0645,275.0675,0,U,50489,999,22152,-.78778977E-4,-.18E-6,0
ONEWEB-0413,2021-132X,2026-06-16T04:47:09.083616,13.18685932,.00015463,87.9159,335.6520,90.1228,270.0081,0,U,50490,999,22146,-.71369588E-4,-.15E-6,0
ONEWEB-0414,2021-132Y,2026-06-16T04:25:16.780800,13.18685152,.00018441,87.9170,335.6367,86.8979,273.2364,0,U,50491,999,22149,-.113574E-3,-.32E-6,0
ONEWEB-0417,2021-132Z,2026-06-16T04:37:25.061088,13.18684890,.00020932,87.9161,335.6548,90.8633,269.2739,0,U,50492,999,22147,-.93735688E-4,-.24E-6,0
ONEWEB-0418,2021-132AA,2026-06-16T04:51:46.001664,13.18687906,.00021618,87.9170,335.6525,91.2119,268.9261,0,U,50493,999,22153,-.15291826E-2,-.59E-5,0
ONEWEB-0419,2021-132AB,2026-06-16T05:18:32.761728,13.18665578,.00021142,87.9171,335.6483,97.3298,262.8075,0,U,50494,999,22145,-.11723048E-4,.8E-7,0
ONEWEB-0420,2021-132AC,2026-06-16T04:27:42.067584,13.18685293,.00016828,87.9160,335.6583,95.8728,264.2596,0,U,50495,999,22144,-.65742052E-4,-.13E-6,0
ONEWEB-0421,2021-132AD,2026-06-16T04:17:59.380800,13.18684676,.00018011,87.9166,335.6572,80.7858,279.3478,0,U,50496,999,22148,-.88153756E-4,-.22E-6,0
ONEWEB-0424,2021-132AE,2026-06-16T05:11:24.577152,13.18685032,.00020701,87.9169,335.6478,101.1748,258.9617,0,U,50497,999,22151,.88329971E-4,.48E-6,0
ONEWEB-0426,2021-132AF,2026-06-16T04:11:54.168864,13.18689393,.00022818,87.9169,335.6470,77.1462,282.9925,0,U,50498,999,22145,.18901477E-3,.87E-6,0
ONEWEB-0427,2021-132AG,2026-06-16T05:08:58.937856,13.18685017,.00020372,87.9171,335.6281,89.8721,270.2645,0,U,50499,999,22148,.78212285E-4,.44E-6,0
ONEWEB-0429,2021-132AH,2026-06-15T23:21:46.232064,13.18685431,.00017244,87.9162,335.7004,93.0752,267.0578,0,U,50500,999,22142,-.70410181E-4,-.15E-6,0
ONEWEB-0430,2021-132AJ,2026-06-16T04:32:33.373824,13.18685605,.00018134,87.9162,335.6560,101.0537,259.0800,0,U,50501,999,22149,-.48490058E-4,-.6E-7,0
ONEWEB-0432,2021-132AK,2026-06-16T05:33:18.404064,13.17154275,.00021633,87.9169,335.6248,108.7095,251.4271,0,U,50502,999,22145,-.13316206E-3,-.38E-6,0
ONEWEB-0440,2021-132AL,2026-06-16T05:01:41.592288,13.18685126,.00015679,87.9171,335.6479,86.2406,273.8906,0,U,50503,999,22144,.56565093E-4,.35E-6,0
ONEWEB-0450,2021-132AM,2026-06-16T04:52:11.357472,13.18685403,.00016922,87.9159,335.6545,96.8692,263.2633,0,U,50504,999,22147,-.97699739E-4,-.26E-6,0
